GLOBALSTAR M045         
1 25676U 99019A   25098.88862926 -.00000043  00000+0  44554-3 0  9999
2 25676  51.9946 142.7854 0000574 106.1762  66.4402 12.27060407184882
GLOBALSTAR M019         
1 25677U 99019B   25098.75780387  .00000007  00000+0  10081-2 0  9992
2 25677  51.9873 268.6378 0001635 148.3769 225.5994 12.13877266176716
GLOBALSTAR M044         
1 25678U 99019C   25098.66667015 -.00000104  00000+0 -28168-3 0  9991
2 25678  51.9962 211.5547 0005834 262.7348 243.4275 11.90248289163044
GLOBALSTAR M042         
1 25679U 99019D   25098.45500692 -.00000071  00000+0  19546-3 0  9998
2 25679  52.0006 247.8095 0003523 146.7146 250.9001 12.22081583176734
GLOBALSTAR M025         
1 25770U 99031A   25099.13895882 -.00000068  00000+0 -16637-4 0  9994
2 25770  51.9838 319.2290 0002074  53.1504  95.3454 11.22558251131618
GLOBALSTAR M049         
1 25771U 99031B   25098.96012491 -.00000045  00000+0  71212-3 0  9995
2 25771  51.9910 350.9260 0002090 252.6875 107.3693 11.12113413109726
GLOBALSTAR M047         
1 25772U 99031C   25098.91619838 -.00000066  00000+0  10679-3 0  9992
2 25772  51.9875 354.6133 0016602 141.9534 218.2447 11.31927081463269
GLOBALSTAR M052         
1 25773U 99031D   25098.78071373 -.00000064  00000+0  68468-4 0  9992
2 25773  51.9837 100.9800 0002386  57.5179 113.1448 11.15058680470761
